BEIDOU-2 G3             
1 36590U 10024A   26071.58752966 -.00000133  00000+0  00000+0 0  9990
2 36590   4.2857  61.8915 0008048 324.9092  74.4856  1.00275215 57807
GSAT0101 (GALILEO-PFM)  
1 37846U 11060A   26053.46432651 -.00000082  00000+0  00000+0 0  9992
2 37846  57.0318 344.8758 0003975 357.0591   2.9533  1.70475478 89166
GSAT0102 (GALILEO-FM2)  
1 37847U 11060B   26060.06318653 -.00000106  00000+0  00000+0 0  9999
2 37847  57.0301 344.6971 0005422 341.2092 154.1953  1.70475778 89286
BEIDOU-2 M4             
1 38251U 12018B   26070.39458933 -.00000044  00000+0  00000+0 0  9997
2 38251  55.7415 307.3942 0012233 287.3312  72.5873  1.86229837 94127
GSAT0213 (GALILEO 17)   
1 41861U 16069C   26070.59350272  .00000020  00000+0  00000+0 0  9990
2 41861  55.4354 103.7885 0005437 293.5263  66.4835  1.70475014 57855
GSAT0214 (GALILEO 18)   
1 41862U 16069D   26071.32615117  .00000024  00000+0  00000+0 0  9999
2 41862  55.4333 103.7610 0004466 297.8849  62.1388  1.70474843 57997
GSAT0215 (GALILEO 19)   
1 43055U 17079A   26071.22961077  .00000037  00000+0  00000+0 0  9999
2 43055  55.1053 224.1716 0000505 355.7025   4.2562  1.70474613 51332
GSAT0216 (GALILEO 20)   
1 43056U 17079B   26070.93424595  .00000037  00000+0  00000+0 0  9996
2 43056  55.1059 224.1799 0001727 313.6436  46.3012  1.70474737 51341
GSAT0217 (GALILEO 21)   
1 43057U 17079C   26071.74158320  .00000037  00000+0  00000+0 0  9997
2 43057  55.1048 224.1555 0001948 350.8522   9.1027  1.70474639 51348
PAZ                     
1 43215U 18020A   26072.00517838  .00002275  00000+0  11151-3 0  9992
2 43215  97.4462  80.7586 0001692  88.8281 271.3147 15.19153269446401
BEIDOU-3 M5             
1 43581U 18062A   26071.45501707 -.00000011  00000+0  00000+0 0  9994
2 43581  54.0877 185.5927 0002388 304.9134  55.0505  1.86228824 51834
BEIDOU-3 M6             
1 43582U 18062B   26071.85493381 -.00000012  00000+0  00000+0 0  9998
2 43582  54.0872 185.5681 0005998  41.9373 318.0942  1.86227817 51849
BEIDOU-2 G8             
1 44231U 19027A   26071.81425899 -.00000246  00000+0  00000+0 0  9996
2 44231   1.4128  74.2589 0011489 274.3988 259.4146  1.00274335 25116
BEIDOU-3 M24            
1 44542U 19061A   26071.59046001 -.00000011  00000+0  00000+0 0  9998
2 44542  54.3985 185.9849 0008561  19.8304 340.1884  1.86229082 43995
BEIDOU-3 M23            
1 44543U 19061B   26071.13900043 -.00000009  00000+0  00000+0 0  9991
2 44543  54.3975 185.9688 0004976  10.6705 318.8703  1.86227389 43985
BEIDOU-3 M22            
1 44793U 19078A   26067.13407688 -.00000062  00000+0  00000+0 0  9997
2 44793  54.0269 303.3840 0007399  37.3018 322.7988  1.86232103 42760
BEIDOU-3 M21            
1 44794U 19078B   26071.03242650 -.00000032  00000+0  00000+0 0  9995
2 44794  53.9966 303.2101 0005425  33.1471 326.9381  1.86227925 42845
BEIDOU-3 G2             
1 45344U 20017A   26071.73027030 -.00000139  00000+0  00000+0 0  9990
2 45344   2.6700  45.7202 0002714 321.3893 146.2035  1.00272654 22293
GSAT0233 (GALILEO 33)   
1 67160U 25302A   26044.50000000 -.00000008  00000+0  00000+0 0  9990
2 67160  54.3935 105.2952 0003011 207.0582 359.4109  1.70474578    20
GSAT0234 (GALILEO 34)   
1 67162U 25302C   26044.50000000 -.00000008  00000+0  00000+0 0  9992
2 67162  54.3967 105.2938 0003081 266.8423 119.7309  1.70475065   127
