[ {"OBJECT_NAME": "GSAT0233 (GALILEO 33)", "NORAD_CAT_ID": 67160, "MEAN_MOTION": 1.70474578, "ECCENTRICITY": 0.0003011, "INCLINATION": 54.3935, "RA_OF_ASC_NODE": 105.2952, "ARG_OF_PERICENTER": 207.0582, "MEAN_ANOMALY": 359.4109, "BSTAR": 0.0, "EPOCH": "2026-02-13T12:00:00"}, {"OBJECT_NAME": "GSAT0213 (GALILEO 17)", "NORAD_CAT_ID": 41861, "MEAN_MOTION": 1.70475014, "ECCENTRICITY": 0.0005437, "INCLINATION": 55.4354, "RA_OF_ASC_NODE": 103.7885, "ARG_OF_PERICENTER": 293.5263, "MEAN_ANOMALY": 66.4835, "BSTAR": 0.0, "EPOCH": "2026-03-11T14:14:38"}, {"OBJECT_NAME": "GSAT0101 (GALILEO-PFM)", "NORAD_CAT_ID": 37846, "MEAN_MOTION": 1.70475478, "ECCENTRICITY": 0.0003975, "INCLINATION": 57.0318, "RA_OF_ASC_NODE": 344.8758, "ARG_OF_PERICENTER": 357.0591, "MEAN_ANOMALY": 2.9533, "BSTAR": 0.0, "EPOCH": "2026-02-22T11:08:37"}, {"OBJECT_NAME": "GSAT0234 (GALILEO 34)", "NORAD_CAT_ID": 67162, "MEAN_MOTION": 1.70475065, "ECCENTRICITY": 0.0003081, "INCLINATION": 54.3967, "RA_OF_ASC_NODE": 105.2938, "ARG_OF_PERICENTER": 266.8423, "MEAN_ANOMALY": 119.7309, "BSTAR": 0.0, "EPOCH": "2026-02-13T12:00:00"}, {"OBJECT_NAME": "GSAT0214 (GALILEO 18)", "NORAD_CAT_ID": 41862, "MEAN_MOTION": 1.70474843, "ECCENTRICITY": 0.0004466, "INCLINATION": 55.4333, "RA_OF_ASC_NODE": 103.761, "ARG_OF_PERICENTER": 297.8849, "MEAN_ANOMALY": 62.1388, "BSTAR": 0.0, "EPOCH": "2026-03-12T07:49:39"}, {"OBJECT_NAME": "GSAT0102 (GALILEO-FM2)", "NORAD_CAT_ID": 37847, "MEAN_MOTION": 1.70475778, "ECCENTRICITY": 0.0005422, "INCLINATION": 57.0301, "RA_OF_ASC_NODE": 344.6971, "ARG_OF_PERICENTER": 341.2092, "MEAN_ANOMALY": 154.1953, "BSTAR": 0.0, "EPOCH": "2026-03-01T01:30:59"}, {"OBJECT_NAME": "GSAT0215 (GALILEO 19)", "NORAD_CAT_ID": 43055, "MEAN_MOTION": 1.70474613, "ECCENTRICITY": 5.05e-05, "INCLINATION": 55.1053, "RA_OF_ASC_NODE": 224.1716, "ARG_OF_PERICENTER": 355.7025, "MEAN_ANOMALY": 4.2562, "BSTAR": 0.0, "EPOCH": "2026-03-12T05:30:38"}, {"OBJECT_NAME": "GSAT0216 (GALILEO 20)", "NORAD_CAT_ID": 43056, "MEAN_MOTION": 1.70474737, "ECCENTRICITY": 0.0001727, "INCLINATION": 55.1059, "RA_OF_ASC_NODE": 224.1799, "ARG_OF_PERICENTER": 313.6436, "MEAN_ANOMALY": 46.3012, "BSTAR": 0.0, "EPOCH": "2026-03-11T22:25:18"}, {"OBJECT_NAME": "GSAT0217 (GALILEO 21)", "NORAD_CAT_ID": 43057, "MEAN_MOTION": 1.70474639, "ECCENTRICITY": 0.0001948, "INCLINATION": 55.1048, "RA_OF_ASC_NODE": 224.1555, "ARG_OF_PERICENTER": 350.8522, "MEAN_ANOMALY": 9.1027, "BSTAR": 0.0, "EPOCH": "2026-03-12T17:47:52"}, {"OBJECT_NAME": "PAZ", "NORAD_CAT_ID": 43215, "MEAN_MOTION": 15.19153269, "ECCENTRICITY": 0.0001692, "INCLINATION": 97.4462, "RA_OF_ASC_NODE": 80.7586, "ARG_OF_PERICENTER": 88.8281, "MEAN_ANOMALY": 271.3147, "BSTAR": 0.00011151, "EPOCH": "2026-03-13T00:07:27"}, {"OBJECT_NAME": "BEIDOU-2 M4 (C12)", "NORAD_CAT_ID": 38251, "MEAN_MOTION": 1.86229837, "ECCENTRICITY": 0.0012233, "INCLINATION": 55.7415, "RA_OF_ASC_NODE": 307.3942, "ARG_OF_PERICENTER": 287.3312, "MEAN_ANOMALY": 72.5873, "BSTAR": 0.0, "EPOCH": "2026-03-11T09:28:12"}, {"OBJECT_NAME": "BEIDOU-2 G8 (C01)", "NORAD_CAT_ID": 44231, "MEAN_MOTION": 1.00274335, "ECCENTRICITY": 0.0011489, "INCLINATION": 1.4128, "RA_OF_ASC_NODE": 74.2589, "ARG_OF_PERICENTER": 274.3988, "MEAN_ANOMALY": 259.4146, "BSTAR": 0.0, "EPOCH": "2026-03-12T19:32:31"}, {"OBJECT_NAME": "BEIDOU-3 M24 (C46)", "NORAD_CAT_ID": 44542, "MEAN_MOTION": 1.86229082, "ECCENTRICITY": 0.0008561, "INCLINATION": 54.3985, "RA_OF_ASC_NODE": 185.9849, "ARG_OF_PERICENTER": 19.8304, "MEAN_ANOMALY": 340.1884, "BSTAR": 0.0, "EPOCH": "2026-03-12T14:10:15"}, {"OBJECT_NAME": "BEIDOU-3 M23 (C45)", "NORAD_CAT_ID": 44543, "MEAN_MOTION": 1.86227389, "ECCENTRICITY": 0.0004976, "INCLINATION": 54.3975, "RA_OF_ASC_NODE": 185.9688, "ARG_OF_PERICENTER": 10.6705, "MEAN_ANOMALY": 318.8703, "BSTAR": 0.0, "EPOCH": "2026-03-12T03:20:09"}, {"OBJECT_NAME": "BEIDOU-3 M5 (C23)", "NORAD_CAT_ID": 43581, "MEAN_MOTION": 1.86228824, "ECCENTRICITY": 0.0002388, "INCLINATION": 54.0877, "RA_OF_ASC_NODE": 185.5927, "ARG_OF_PERICENTER": 304.9134, "MEAN_ANOMALY": 55.0505, "BSTAR": 0.0, "EPOCH": "2026-03-12T10:55:13"}, {"OBJECT_NAME": "BEIDOU-3 M22 (C44)", "NORAD_CAT_ID": 44793, "MEAN_MOTION": 1.86232103, "ECCENTRICITY": 0.0007399, "INCLINATION": 54.0269, "RA_OF_ASC_NODE": 303.384, "ARG_OF_PERICENTER": 37.3018, "MEAN_ANOMALY": 322.7988, "BSTAR": 0.0, "EPOCH": "2026-03-08T03:13:04"}, {"OBJECT_NAME": "BEIDOU-3 M6 (C24)", "NORAD_CAT_ID": 43582, "MEAN_MOTION": 1.86227817, "ECCENTRICITY": 0.0005998, "INCLINATION": 54.0872, "RA_OF_ASC_NODE": 185.5681, "ARG_OF_PERICENTER": 41.9373, "MEAN_ANOMALY": 318.0942, "BSTAR": 0.0, "EPOCH": "2026-03-12T20:31:06"}, {"OBJECT_NAME": "BEIDOU-3 M21 (C43)", "NORAD_CAT_ID": 44794, "MEAN_MOTION": 1.86227925, "ECCENTRICITY": 0.0005425, "INCLINATION": 53.9966, "RA_OF_ASC_NODE": 303.2101, "ARG_OF_PERICENTER": 33.1471, "MEAN_ANOMALY": 326.9381, "BSTAR": 0.0, "EPOCH": "2026-03-12T00:46:41"}, {"OBJECT_NAME": "BEIDOU-2 G3", "NORAD_CAT_ID": 36590, "MEAN_MOTION": 1.00275215, "ECCENTRICITY": 0.0008048, "INCLINATION": 4.2857, "RA_OF_ASC_NODE": 61.8915, "ARG_OF_PERICENTER": 324.9092, "MEAN_ANOMALY": 74.4856, "BSTAR": 0.0, "EPOCH": "2026-03-12T14:06:02"}, {"OBJECT_NAME": "BEIDOU-3 G2 (C60)", "NORAD_CAT_ID": 45344, "MEAN_MOTION": 1.00272654, "ECCENTRICITY": 0.0002714, "INCLINATION": 2.67, "RA_OF_ASC_NODE": 45.7202, "ARG_OF_PERICENTER": 321.3893, "MEAN_ANOMALY": 146.2035, "BSTAR": 0.0, "EPOCH": "2026-03-12T17:31:35"}]